{"fetched_at":"2026-07-16T06:42:45.398Z","source":"https://celestrak.org/NORAD/elements/gp.php?NAME=ASTROCAST&FORMAT=JSON","constellation":"astrocast","records":[{"OBJECT_NAME":"ASTROCAST 0.1","OBJECT_ID":"2018-099AS","EPOCH":"2026-07-15T18:52:18.157728","CLASSIFICATION_TYPE":"U","MEAN_MOTION":15.51482176,"ECCENTRICITY":0.00055498,"INCLINATION":97.4374,"RA_OF_ASC_NODE":276.2147,"ARG_OF_PERICENTER":127.4076,"MEAN_ANOMALY":232.7682,"EPHEMERIS_TYPE":0,"NORAD_CAT_ID":43798,"ELEMENT_SET_NO":999,"REV_AT_EPOCH":41886,"BSTAR":0.00041099645,"MEAN_MOTION_DOT":0.00024228,"MEAN_MOTION_DDOT":0},{"OBJECT_NAME":"ASTROCAST-0402","OBJECT_ID":"2023-001DE","EPOCH":"2026-07-15T18:38:41.465184","CLASSIFICATION_TYPE":"U","MEAN_MOTION":15.29017603,"ECCENTRICITY":0.0006473,"INCLINATION":97.5587,"RA_OF_ASC_NODE":290.4119,"ARG_OF_PERICENTER":132.9992,"MEAN_ANOMALY":227.1791,"EPHEMERIS_TYPE":0,"NORAD_CAT_ID":55109,"ELEMENT_SET_NO":999,"REV_AT_EPOCH":14890,"BSTAR":0.00024178284,"MEAN_MOTION_DOT":0.00006738,"MEAN_MOTION_DDOT":0},{"OBJECT_NAME":"ASTROCAST-0401","OBJECT_ID":"2023-001DF","EPOCH":"2026-07-15T19:01:18.048864","CLASSIFICATION_TYPE":"U","MEAN_MOTION":15.28562782,"ECCENTRICITY":0.00095234,"INCLINATION":97.5573,"RA_OF_ASC_NODE":290.2327,"ARG_OF_PERICENTER":106.4869,"MEAN_ANOMALY":253.7418,"EPHEMERIS_TYPE":0,"NORAD_CAT_ID":55110,"ELEMENT_SET_NO":999,"REV_AT_EPOCH":19557,"BSTAR":0.00039083701,"MEAN_MOTION_DOT":0.00010802,"MEAN_MOTION_DDOT":0},{"OBJECT_NAME":"ASTROCAST-0403","OBJECT_ID":"2023-001DG","EPOCH":"2026-07-15T19:23:09.085920","CLASSIFICATION_TYPE":"U","MEAN_MOTION":15.3237537,"ECCENTRICITY":0.00047505,"INCLINATION":97.5627,"RA_OF_ASC_NODE":291.5726,"ARG_OF_PERICENTER":209.2189,"MEAN_ANOMALY":150.8787,"EPHEMERIS_TYPE":0,"NORAD_CAT_ID":55111,"ELEMENT_SET_NO":999,"REV_AT_EPOCH":14894,"BSTAR":0.00044737807,"MEAN_MOTION_DOT":0.00013919,"MEAN_MOTION_DDOT":0},{"OBJECT_NAME":"ASTROCAST-0404","OBJECT_ID":"2023-001DH","EPOCH":"2026-07-15T19:27:13.801824","CLASSIFICATION_TYPE":"U","MEAN_MOTION":15.28829986,"ECCENTRICITY":0.00051345,"INCLINATION":97.5674,"RA_OF_ASC_NODE":291.3798,"ARG_OF_PERICENTER":240.4496,"MEAN_ANOMALY":119.6232,"EPHEMERIS_TYPE":0,"NORAD_CAT_ID":55112,"ELEMENT_SET_NO":999,"REV_AT_EPOCH":14890,"BSTAR":0.00016650796,"MEAN_MOTION_DOT":0.00004587,"MEAN_MOTION_DDOT":0}]}
