ASTROCAST 0.1           
1 43798U 18099AS  26196.78632126  .00024228  00000+0  41100-3 0  9993
2 43798  97.4374 276.2147 0005550 127.4076 232.7682 15.51482176418865
ASTROCAST-0402          
1 55109U 23001DE  26196.77686881  .00006738  00000+0  24178-3 0  9999
2 55109  97.5587 290.4119 0006473 132.9992 227.1791 15.29017603148909
ASTROCAST-0401          
1 55110U 23001DF  26196.79257000  .00010802  00000+0  39084-3 0  9999
2 55110  97.5573 290.2327 0009523 106.4869 253.7418 15.28562782195571
ASTROCAST-0403          
1 55111U 23001DG  26196.80774404  .00013919  00000+0  44738-3 0  9998
2 55111  97.5627 291.5726 0004751 209.2189 150.8787 15.32375370148949
ASTROCAST-0404          
1 55112U 23001DH  26196.81057640  .00004587  00000+0  16651-3 0  9990
2 55112  97.5674 291.3798 0005135 240.4496 119.6232 15.28829986148900
